QIANFAN-41              
1 62242U 24232F   25301.58267199  .00000241  00000+0  35490-3 0  9997
2 62242  89.0036  45.7431 0012538 326.7699  33.2664 13.50982309 93151
QIANFAN-42              
1 62243U 24232G   25301.60377911  .00000810  00000+0  34380-3 0  9994
2 62243  89.0031  42.5016 0013669 225.4133 134.5945 14.24414220 94944
QIANFAN-43              
1 62244U 24232H   25301.57857722  .00000226  00000+0  33100-3 0  9994
2 62244  89.0041  45.8069 0014155 332.0199  28.0190 13.50983209 61767
QIANFAN-44              
1 62245U 24232J   25301.64024113  .00000088  00000+0  11755-3 0  9991
2 62245  89.0040  45.6122 0012330 329.2549  30.7879 13.50970186 93247
QIANFAN-45              
1 62246U 24232K   25301.60740253  .00000199  00000+0  28943-3 0  9998
2 62246  89.0042  45.7604 0012959 328.7364  31.3015 13.50980908 93165
QIANFAN-46              
1 62247U 24232L   25301.63205660  .00000215  00000+0  31502-3 0  9994
2 62247  89.0039  45.8287 0013162 334.7160  25.3346 13.50981590 93122
QIANFAN-47              
1 62248U 24232M   25301.56210501  .00000211  00000+0  30783-3 0  9993
2 62248  89.0035  45.7705 0013567 333.8209  26.2254 13.50983356 93148
QIANFAN-48              
1 62249U 24232N   25301.59923627  .00000212  00000+0  30944-3 0  9997
2 62249  89.0038  45.7669 0015860 335.7492  24.2911 13.50979447 93159
